[{"OBJECT_NAME":"HAWK-11C","OBJECT_ID":"2024-247E","EPOCH":"2026-03-09T12:17:35.407968","MEAN_MOTION":15.2884802,"ECCENTRICITY":0.00059001,"INCLINATION":45.0045,"RA_OF_ASC_NODE":114.8762,"ARG_OF_PERICENTER":329.704,"MEAN_ANOMALY":30.3502,"EPHEMERIS_TYPE":0,"CLASSIFICATION_TYPE":"U","NORAD_CAT_ID":62381,"ELEMENT_SET_NO":999,"REV_AT_EPOCH":6774,"BSTAR":0.00033290115,"MEAN_MOTION_DOT":9.223e-5,"MEAN_MOTION_DDOT":0},{"OBJECT_NAME":"STARLINK-34186","OBJECT_ID":"2025-111Y","EPOCH":"2026-03-09T10:33:02.609856","MEAN_MOTION":15.27617234,"ECCENTRICITY":0.00013915,"INCLINATION":43.0012,"RA_OF_ASC_NODE":79.4066,"ARG_OF_PERICENTER":285.7216,"MEAN_ANOMALY":74.3482,"EPHEMERIS_TYPE":0,"CLASSIFICATION_TYPE":"U","NORAD_CAT_ID":64145,"ELEMENT_SET_NO":999,"REV_AT_EPOCH":4542,"BSTAR":0.0006082668,"MEAN_MOTION_DOT":0.00016533,"MEAN_MOTION_DDOT":0}]
